SWARM B                 
1 39451U 13067A   26173.82942379  .00002661  00000+0  94499-4 0  9995
2 39451  87.7444 340.6021 0003153  83.6427 276.5181 15.28580207684103
SWARM A                 
1 39452U 13067B   26173.83292405  .00008006  00000+0  13703-3 0  9992
2 39452  87.3321  54.1437 0003102  96.8409 263.3205 15.51045986707127
SWARM C                 
1 39453U 13067C   26173.83281689  .00008075  00000+0  13822-3 0  9993
2 39453  87.3321  52.7248 0003092  96.7304 263.4309 15.51044372707082
BRITE-CA1 (TORONTO)     
1 40020U 14033L   26173.67717501  .00000548  00000+0  90186-4 0  9994
2 40020  97.9745 302.5040 0077240 259.1141 100.1368 14.72683180643020
OCO 2                   
1 40059U 14035A   26173.78637920  .00000262  00000+0  68075-4 0  9991
2 40059  98.2017 114.9941 0001504  83.9635 276.1735 14.57114867636864
BRITE-PL2 (HEWELIUSZ)   
1 40119U 14049B   26173.26046644  .00001763  00000+0  16801-3 0  9999
2 40119  97.9103 285.2995 0015429  93.1966 267.1019 14.94609987642208
MMS 1                   
1 40482U 15011A   26173.83335648 -.00000497  00000+0  00000+0 0  9994
2 40482  72.1996 348.7398 8321040 167.5244 154.5962  0.28350554  1390
MMS 2                   
1 40483U 15011B   26173.83335648 -.00000497  00000+0  00000+0 0  9995
2 40483  72.2007 348.7394 8323633 167.5281 154.5847  0.28350117  1399
MMS 3                   
1 40484U 15011C   26173.83335648 -.00000497  00000+0  00000+0 0  9996
2 40484  72.2018 348.7509 8321757 167.5343 154.5665  0.28349348  1396
MMS 4                   
1 40485U 15011D   26173.83335648 -.00000497  00000+0  00000+0 0  9997
2 40485  72.1940 348.7351 8321679 167.5442 154.5567  0.28349464  1398
ASTROSAT                
1 40930U 15052A   26172.46425859  .00001289  00000+0  75284-4 0  9999
2 40930   5.9959 124.5526 0007456  96.3173 263.7804 14.82513050580463
DAMPE                   
1 41173U 15078A   26173.85540142  .00001299  00000+0  46163-4 0  9999
2 41173  97.4563 179.3504 0013625  59.7603 300.4985 15.30798706585416
PISAT                   
1 41784U 16059B   26173.25267590  .00000641  00000+0  11682-3 0  9991
2 41784  97.8178 173.4878 0028802 186.3495 173.7350 14.68990340520489
HXMT (HUIYAN)           
1 42758U 17034A   26173.85702498  .00002423  00000+0  12552-3 0  9991
2 42758  43.0126 151.4682 0031393 183.4385 176.6252 15.18503538498528
FLYING LAPTOP           
1 42831U 17042G   26173.85136763  .00003026  00000+0  23950-3 0  9992
2 42831  97.4715 329.1672 0019823 103.5162 256.8273 15.01178099487300
ZHANGHENG 1-01 (CSES-1) 
1 43194U 18015C   26173.86314920  .00005614  00000+0  25647-3 0  9990
2 43194  97.6877 339.6337 0017185 245.1570 114.7878 15.20871983465507
SALSAT                  
1 46495U 20068K   26173.31277948  .00005705  00000+0  20010-3 0  9996
2 46495  97.8856 176.6896 0007816 286.6046  73.4334 15.29860164316141
IXPE                    
1 49954U 21121A   26173.83335648  .00009620  00000+0  51487-3 0  9991
2 49954   0.2308 274.9626 0007383 166.2650 331.4895 15.10290992  5825
SMILE                   
1 69123U 26109A   26158.38327019 -.00000041  00000+0 -36778-3 0  9994
2 69123  69.9787 209.3069 3310191 288.5544  45.7342  7.54049028  2480
