OBJECT_NAME,OBJECT_ID,EPOCH,MEAN_MOTION,ECCENTRICITY,INCLINATION,RA_OF_ASC_NODE,ARG_OF_PERICENTER,MEAN_ANOMALY,EPHEMERIS_TYPE,CLASSIFICATION_TYPE,NORAD_CAT_ID,ELEMENT_SET_NO,REV_AT_EPOCH,BSTAR,MEAN_MOTION_DOT,MEAN_MOTION_DDOT
SWARM B,2013-067A,2026-06-22T19:54:22.215456,15.28580207,.00031535,87.7444,340.6021,83.6427,276.5181,0,U,39451,999,68410,.94499176E-4,.2661E-4,0
SWARM A,2013-067B,2026-06-22T19:59:24.637920,15.51045986,.00031028,87.3321,54.1437,96.8409,263.3205,0,U,39452,999,70712,.13702652E-3,.8006E-4,0
SWARM C,2013-067C,2026-06-22T19:59:15.379296,15.51044372,.00030926,87.3321,52.7248,96.7304,263.4309,0,U,39453,999,70708,.13821665E-3,.8075E-4,0
BRITE-CA1 (TORONTO),2014-033L,2026-06-22T16:15:07.920864,14.72683180,.00772401,97.9745,302.5040,259.1141,100.1368,0,U,40020,999,64302,.9018558E-4,.548E-5,0
OCO 2,2014-035A,2026-06-22T18:52:23.162880,14.57114867,.00015048,98.2017,114.9941,83.9635,276.1735,0,U,40059,999,63686,.68074629E-4,.262E-5,0
BRITE-PL2 (HEWELIUSZ),2014-049B,2026-06-22T06:15:04.300416,14.94609987,.00154299,97.9103,285.2995,93.1966,267.1019,0,U,40119,999,64220,.16800824E-3,.1763E-4,0
MMS 1,2015-011A,2026-06-22T20:00:01.999872,0.28350554,.83210401,72.1996,348.7398,167.5244,154.5962,0,U,40482,999,139,0,-.497E-5,0
MMS 2,2015-011B,2026-06-22T20:00:01.999872,0.28350117,.83236333,72.2007,348.7394,167.5281,154.5847,0,U,40483,999,139,0,-.497E-5,0
MMS 3,2015-011C,2026-06-22T20:00:01.999872,0.28349348,.8321757,72.2018,348.7509,167.5343,154.5665,0,U,40484,999,139,0,-.497E-5,0
MMS 4,2015-011D,2026-06-22T20:00:01.999872,0.28349464,.83216792,72.1940,348.7351,167.5442,154.5567,0,U,40485,999,139,0,-.497E-5,0
ASTROSAT,2015-052A,2026-06-21T11:08:31.942176,14.82513050,.00074561,5.9959,124.5526,96.3173,263.7804,0,U,40930,999,58046,.75283804E-4,.1289E-4,0
DAMPE,2015-078A,2026-06-22T20:31:46.682688,15.30798706,.00136259,97.4563,179.3504,59.7603,300.4985,0,U,41173,999,58541,.46163286E-4,.1299E-4,0
PISAT,2016-059B,2026-06-22T06:03:51.197760,14.68990340,.00288029,97.8178,173.4878,186.3495,173.7350,0,U,41784,999,52048,.11682461E-3,.641E-5,0
HXMT (HUIYAN),2017-034A,2026-06-22T20:34:06.958272,15.18503538,.00313936,43.0126,151.4682,183.4385,176.6252,0,U,42758,999,49852,.12552203E-3,.2423E-4,0
FLYING LAPTOP,2017-042G,2026-06-22T20:25:58.163232,15.01178099,.00198232,97.4715,329.1672,103.5162,256.8273,0,U,42831,999,48730,.23950464E-3,.3026E-4,0
ZHANGHENG 1-01 (CSES-1),2018-015C,2026-06-22T20:42:56.090880,15.20871983,.00171859,97.6877,339.6337,245.1570,114.7878,0,U,43194,999,46550,.25646837E-3,.5614E-4,0
SALSAT,2020-068K,2026-06-22T07:30:24.147072,15.29860164,.0007816,97.8856,176.6896,286.6046,73.4334,0,U,46495,999,31614,.20010299E-3,.5705E-4,0
IXPE,2021-121A,2026-06-22T20:00:01.999872,15.10290992,.00073831,0.2308,274.9626,166.2650,331.4895,0,U,49954,999,582,.51486663E-3,.962E-4,0
SMILE,2026-109A,2026-06-07T09:11:54.544416,7.54049028,.3310191,69.9787,209.3069,288.5544,45.7342,0,U,69123,999,248,-.36778157E-3,-.41E-6,0
